M2 PATHFINDER           
1 45727U 20037E   20199.80255897  .00000700  00000-0  75876-4 0  9996
2 45727  97.7030  19.2297 0012720 191.9664 168.1254 14.91209622  2545
